COSMOS 2413 (712)       
1 28509U 04053B   15365.51808991  .00000075  00000-0  00000+0 0  9998
2 28509  63.1318 196.1044 0005604 159.6142 176.4470  2.13101907 85709
COSMOS 2419 (714)       
1 28915U 05050A   16001.44102208 -.00000043  00000-0  00000+0 0  9991
2 28915  65.2485  83.8305 0014417 349.8527 333.2692  2.13112936 77975
COSMOS 2425 (716)       
1 29670U 06062A   15365.66860954 -.00000044  00000-0  10000-3 0  9995
2 29670  65.7044 322.8178 0022887 339.8022 172.9944  2.13104903 70160
COSMOS 2426 (717)       
1 29671U 06062B   15365.44078958 -.00000044  00000-0  10000-3 0  9997
2 29671  65.7215 322.9033 0015773 173.6548  26.4704  2.13102968 70161
COSMOS 2424 (715)       
1 29672U 06062C   15365.71128788 -.00000044  00000-0  10000-3 0  9995
2 29672  65.7057 322.8257 0015183 172.6859  51.7689  2.13102071 70160
COSMOS 2433 (720)       
1 32275U 07052A   16001.04731412 -.00000042  00000-0  10000-3 0  9994
2 32275  65.2634  83.6115 0003131 241.2216  33.8680  2.13104976 63681
COSMOS 2432 (719)       
1 32276U 07052B   15365.41904538 -.00000039  00000-0  10000-3 0  9995
2 32276  65.2751  83.6959 0010787 333.8901 133.4258  2.13104176 63671
COSMOS 2434 (721)       
1 32393U 07065A   15365.42099178 -.00000045  00000-0  00000+0 0  9997
2 32393  65.3238 322.2291 0001311 120.9264 287.1007  2.13102711 62382
COSMOS 2436 (723)       
1 32395U 07065C   15365.43595928 -.00000045  00000-0  10000-3 0  9999
2 32395  65.3370 322.2685 0018142 345.9048 165.5892  2.13102749 62312
COSMOS 2443 (725)       
1 33379U 08046B   15365.70267262 -.00000041  00000-0  10000-3 0  9995
2 33379  65.1916  83.0561 0019145 185.5784  92.2763  2.13101421 56540
COSMOS 2456 (730)       
1 36111U 09070A   16001.13644235  .00000079  00000-0  00000+0 0  9999
2 36111  64.1861 201.8231 0003626 347.5031  58.1098  2.13102958 47066
COSMOS 2457 (733)       
1 36112U 09070B   16001.10657184  .00000078  00000-0  00000+0 0  9993
2 36112  64.1684 201.7550 0007322 146.2985   7.4585  2.13101601 47064
COSMOS 2458 (734)       
1 36113U 09070C   16001.35014266  .00000082  00000-0  10000-3 0  9999
2 36113  64.1735 201.7511 0003030  58.8291 329.0135  2.13101922 47070
COSMOS 2459 (731)       
1 36400U 10007A   16001.03476895 -.00000043  00000-0  10000-3 0  9993
2 36400  65.1706  82.7839 0027290 352.1106 140.2053  2.13102245 45414
COSMOS 2461 (735)       
1 36401U 10007B   16001.43445497 -.00000044  00000-0  10000-3 0  9993
2 36401  65.1637  82.7534 0005510  83.4908 266.0026  2.13102207 45410
COSMOS 2460 (732)       
1 36402U 10007C   16001.11012749 -.00000043  00000-0  10000-3 0  9998
2 36402  65.1538  82.7435 0001242 191.7706 311.0417  2.13101912 45415
COSMOS 2466 (738)       
1 37137U 10041A   15365.38312750 -.00000046  00000-0  10000-3 0  9991
2 37137  64.9080 322.4188 0018789 159.5388  83.0625  2.13102252 41478
COSMOS 2465 (737)       
1 37138U 10041B   16001.33401524 -.00000047  00000-0  00000+0 0  9999
2 37138  64.9243 322.4558 0033640 172.2022 262.4016  2.13102660 41493
COSMOS 2464 (736)       
1 37139U 10041C   16001.38801059 -.00000047  00000-0  00000+0 0  9992
2 37139  64.9262 322.4458 0022152   7.2199 243.3855  2.13102699 41493
COSMOS 2471 (701K)      
1 37372U 11009A   15365.42455167 -.00000040  00000-0  00000+0 0  9991
2 37372  65.1509  82.7165 0008525 230.0670 238.8158  2.13102920 37675
COSMOS 2474 (742)       
1 37829U 11055A   15365.86515264  .00000075  00000-0  00000+0 0  9999
2 37829  64.5105 202.1753 0005714 249.8659 169.7756  2.13101918 33050
COSMOS 2476 (744)       
1 37867U 11064A   16001.38404066  .00000082  00000-0  00000+0 0  9991
2 37867  64.4906 202.2431 0014516 245.9344 257.5360  2.13102002 32413
COSMOS 2477 (745)       
1 37868U 11064B   16001.12898265  .00000079  00000-0  00000+0 0  9998
2 37868  64.4987 202.2904 0012553 247.2593 239.9501  2.13101905 32364
COSMOS 2475 (743)       
1 37869U 11064C   16001.38868344  .00000082  00000-0  00000+0 0  9996
2 37869  64.5061 202.2680 0018281 279.0317   3.4596  2.13102142 32374
COSMOS 2478 (746)       
1 37938U 11071A   16001.04018310 -.00000043  00000-0  00000+0 0  9992
2 37938  65.1785  82.9110 0014205 238.2043 104.5528  2.13088299 31976
COSMOS 2485 (747)       
1 39155U 13019A   16001.13623997  .00000079  00000-0  00000+0 0  9990
2 39155  64.6595 202.1650 0014892 239.7444 118.8226  2.13102081 20876
COSMOS 2492 (754)       
1 39620U 14012A   15365.14122779 -.00000038  00000-0  10000-3 0  9997
2 39620  65.0417  82.7884 0014529 330.3254  17.5586  2.13103475 13803
COSMOS 2500 (755)       
1 40001U 14032A   15365.43171641 -.00000040  00000-0  00000+0 0  9996
2 40001  64.9824  82.8156 0007316 203.7575 231.0269  2.13102862 12030
COSMOS 2501 (702K)      
1 40315U 14075A   16001.10071523 -.00000047  00000-0  00000+0 0  9998
2 40315  64.6947 323.9654 0018543 240.8075 149.3171  2.13101347  8455
